{"fetched_at":"2026-07-20T18:29:26.415Z","source":"https://celestrak.org/NORAD/elements/gp.php?NAME=HULIANWANG&FORMAT=JSON","constellation":"guowang","records":[{"OBJECT_NAME":"HULIANWANG DIGUI-12","OBJECT_ID":"2025-030B","EPOCH":"2026-07-20T05:56:26.000160","CLASSIFICATION_TYPE":"U","MEAN_MOTION":13.29322582,"ECCENTRICITY":0.00008767,"INCLINATION":50.0021,"RA_OF_ASC_NODE":117.3778,"ARG_OF_PERICENTER":287.4752,"MEAN_ANOMALY":72.6024,"EPHEMERIS_TYPE":0,"NORAD_CAT_ID":62972,"ELEMENT_SET_NO":999,"REV_AT_EPOCH":7025,"BSTAR":0.000090942647,"MEAN_MOTION_DOT":-8.2e-7,"MEAN_MOTION_DDOT":0},{"OBJECT_NAME":"HULIANWANG DIGUI-13","OBJECT_ID":"2025-030C","EPOCH":"2026-07-20T05:32:14.022240","CLASSIFICATION_TYPE":"U","MEAN_MOTION":13.29324644,"ECCENTRICITY":0.00007107,"INCLINATION":50.0024,"RA_OF_ASC_NODE":117.306,"ARG_OF_PERICENTER":289.0858,"MEAN_ANOMALY":70.9938,"EPHEMERIS_TYPE":0,"NORAD_CAT_ID":62973,"ELEMENT_SET_NO":999,"REV_AT_EPOCH":7025,"BSTAR":0.000083976287,"MEAN_MOTION_DOT":-8.5e-7,"MEAN_MOTION_DDOT":0},{"OBJECT_NAME":"HULIANWANG DIGUI-14","OBJECT_ID":"2025-030D","EPOCH":"2026-07-20T04:56:13.360416","CLASSIFICATION_TYPE":"U","MEAN_MOTION":13.29327622,"ECCENTRICITY":0.00007119,"INCLINATION":50.0029,"RA_OF_ASC_NODE":117.1989,"ARG_OF_PERICENTER":294.026,"MEAN_ANOMALY":66.0538,"EPHEMERIS_TYPE":0,"NORAD_CAT_ID":62974,"ELEMENT_SET_NO":999,"REV_AT_EPOCH":7025,"BSTAR":0.000078757364,"MEAN_MOTION_DOT":-8.7e-7,"MEAN_MOTION_DDOT":0},{"OBJECT_NAME":"HULIANWANG DIGUI-15","OBJECT_ID":"2025-030E","EPOCH":"2026-07-20T05:20:14.517600","CLASSIFICATION_TYPE":"U","MEAN_MOTION":13.2932458,"ECCENTRICITY":0.00007937,"INCLINATION":50.0025,"RA_OF_ASC_NODE":117.2657,"ARG_OF_PERICENTER":292.2878,"MEAN_ANOMALY":67.791,"EPHEMERIS_TYPE":0,"NORAD_CAT_ID":62975,"ELEMENT_SET_NO":999,"REV_AT_EPOCH":7025,"BSTAR":0.000073863082,"MEAN_MOTION_DOT":-9e-7,"MEAN_MOTION_DDOT":0},{"OBJECT_NAME":"HULIANWANG DIGUI-16","OBJECT_ID":"2025-030F","EPOCH":"2026-07-20T04:44:18.967200","CLASSIFICATION_TYPE":"U","MEAN_MOTION":13.29325772,"ECCENTRICITY":0.0000681,"INCLINATION":50.0047,"RA_OF_ASC_NODE":117.2263,"ARG_OF_PERICENTER":292.4941,"MEAN_ANOMALY":67.5859,"EPHEMERIS_TYPE":0,"NORAD_CAT_ID":62976,"ELEMENT_SET_NO":999,"REV_AT_EPOCH":7025,"BSTAR":0.0000921245,"MEAN_MOTION_DOT":-8.1e-7,"MEAN_MOTION_DDOT":0},{"OBJECT_NAME":"HULIANWANG DIGUI-17","OBJECT_ID":"2025-030G","EPOCH":"2026-07-20T06:20:24.149760","CLASSIFICATION_TYPE":"U","MEAN_MOTION":13.29325909,"ECCENTRICITY":0.00007837,"INCLINATION":50.0059,"RA_OF_ASC_NODE":116.9648,"ARG_OF_PERICENTER":283.6223,"MEAN_ANOMALY":76.4562,"EPHEMERIS_TYPE":0,"NORAD_CAT_ID":62977,"ELEMENT_SET_NO":999,"REV_AT_EPOCH":7026,"BSTAR":0.000081732846,"MEAN_MOTION_DOT":-8.6e-7,"MEAN_MOTION_DDOT":0},{"OBJECT_NAME":"HULIANWANG DIGUI-18","OBJECT_ID":"2025-030H","EPOCH":"2026-07-20T06:08:20.261184","CLASSIFICATION_TYPE":"U","MEAN_MOTION":13.2932789,"ECCENTRICITY":0.00008094,"INCLINATION":50.0064,"RA_OF_ASC_NODE":116.9359,"ARG_OF_PERICENTER":282.4206,"MEAN_ANOMALY":77.6576,"EPHEMERIS_TYPE":0,"NORAD_CAT_ID":62978,"ELEMENT_SET_NO":999,"REV_AT_EPOCH":7026,"BSTAR":0.0000810247,"MEAN_MOTION_DOT":-8.6e-7,"MEAN_MOTION_DDOT":0},{"OBJECT_NAME":"HULIANWANG DIGUI-19","OBJECT_ID":"2025-030J","EPOCH":"2026-07-20T05:08:25.390464","CLASSIFICATION_TYPE":"U","MEAN_MOTION":13.29319156,"ECCENTRICITY":0.00007076,"INCLINATION":50.0049,"RA_OF_ASC_NODE":117.3211,"ARG_OF_PERICENTER":281.7238,"MEAN_ANOMALY":78.3555,"EPHEMERIS_TYPE":0,"NORAD_CAT_ID":62979,"ELEMENT_SET_NO":999,"REV_AT_EPOCH":7025,"BSTAR":0.000072682483,"MEAN_MOTION_DOT":-9e-7,"MEAN_MOTION_DDOT":0},{"OBJECT_NAME":"HULIANWANG DIGUI-20","OBJECT_ID":"2025-086A","EPOCH":"2026-07-20T06:23:02.345568","CLASSIFICATION_TYPE":"U","MEAN_MOTION":13.24411781,"ECCENTRICITY":0.0002133,"INCLINATION":86.5066,"RA_OF_ASC_NODE":301.9925,"ARG_OF_PERICENTER":111.2812,"MEAN_ANOMALY":248.855,"EPHEMERIS_TYPE":0,"NORAD_CAT_ID":63687,"ELEMENT_SET_NO":999,"REV_AT_EPOCH":5925,"BSTAR":0.000029799611,"MEAN_MOTION_DOT":2.7e-7,"MEAN_MOTION_DDOT":0},{"OBJECT_NAME":"HULIANWANG DIGUI-21","OBJECT_ID":"2025-086B","EPOCH":"2026-07-20T06:33:57.997152","CLASSIFICATION_TYPE":"U","MEAN_MOTION":13.24410405,"ECCENTRICITY":0.00020825,"INCLINATION":86.5094,"RA_OF_ASC_NODE":302.0567,"ARG_OF_PERICENTER":114.3701,"MEAN_ANOMALY":245.765,"EPHEMERIS_TYPE":0,"NORAD_CAT_ID":63688,"ELEMENT_SET_NO":999,"REV_AT_EPOCH":5924,"BSTAR":0.000016365119,"MEAN_MOTION_DOT":2.2e-7,"MEAN_MOTION_DDOT":0},{"OBJECT_NAME":"HULIANWANG DIGUI-22","OBJECT_ID":"2025-086C","EPOCH":"2026-07-20T06:44:47.705280","CLASSIFICATION_TYPE":"U","MEAN_MOTION":13.24410727,"ECCENTRICITY":0.00021729,"INCLINATION":86.5059,"RA_OF_ASC_NODE":301.911,"ARG_OF_PERICENTER":110.5465,"MEAN_ANOMALY":249.5903,"EPHEMERIS_TYPE":0,"NORAD_CAT_ID":63689,"ELEMENT_SET_NO":999,"REV_AT_EPOCH":5924,"BSTAR":0.000030516927,"MEAN_MOTION_DOT":2.8e-7,"MEAN_MOTION_DDOT":0},{"OBJECT_NAME":"HULIANWANG DIGUI-23","OBJECT_ID":"2025-086D","EPOCH":"2026-07-20T07:06:31.178016","CLASSIFICATION_TYPE":"U","MEAN_MOTION":13.2441051,"ECCENTRICITY":0.00021455,"INCLINATION":86.5101,"RA_OF_ASC_NODE":302.0976,"ARG_OF_PERICENTER":111.1004,"MEAN_ANOMALY":249.0359,"EPHEMERIS_TYPE":0,"NORAD_CAT_ID":63690,"ELEMENT_SET_NO":999,"REV_AT_EPOCH":5924,"BSTAR":0.00009096751,"MEAN_MOTION_DOT":5.4e-7,"MEAN_MOTION_DDOT":0},{"OBJECT_NAME":"HULIANWANG DIGUI-24","OBJECT_ID":"2025-086E","EPOCH":"2026-07-20T07:17:26.820960","CLASSIFICATION_TYPE":"U","MEAN_MOTION":13.24411215,"ECCENTRICITY":0.00021193,"INCLINATION":86.5108,"RA_OF_ASC_NODE":302.1307,"ARG_OF_PERICENTER":113.4891,"MEAN_ANOMALY":246.6466,"EPHEMERIS_TYPE":0,"NORAD_CAT_ID":63691,"ELEMENT_SET_NO":999,"REV_AT_EPOCH":5924,"BSTAR":0.00011131663,"MEAN_MOTION_DOT":6.2e-7,"MEAN_MOTION_DDOT":0},{"OBJECT_NAME":"HULIANWANG DIGUI-25","OBJECT_ID":"2025-086F","EPOCH":"2026-07-20T05:39:32.369184","CLASSIFICATION_TYPE":"U","MEAN_MOTION":13.24410595,"ECCENTRICITY":0.00020645,"INCLINATION":86.5046,"RA_OF_ASC_NODE":301.8945,"ARG_OF_PERICENTER":111.3635,"MEAN_ANOMALY":248.772,"EPHEMERIS_TYPE":0,"NORAD_CAT_ID":63692,"ELEMENT_SET_NO":999,"REV_AT_EPOCH":5923,"BSTAR":0.00013554519,"MEAN_MOTION_DOT":7.3e-7,"MEAN_MOTION_DDOT":0},{"OBJECT_NAME":"HULIANWANG DIGUI-26","OBJECT_ID":"2025-086G","EPOCH":"2026-07-20T06:55:38.991072","CLASSIFICATION_TYPE":"U","MEAN_MOTION":13.24409567,"ECCENTRICITY":0.00022993,"INCLINATION":86.5095,"RA_OF_ASC_NODE":302.0674,"ARG_OF_PERICENTER":115.8752,"MEAN_ANOMALY":244.2619,"EPHEMERIS_TYPE":0,"NORAD_CAT_ID":63693,"ELEMENT_SET_NO":999,"REV_AT_EPOCH":5924,"BSTAR":0.000082096189,"MEAN_MOTION_DOT":5e-7,"MEAN_MOTION_DDOT":0},{"OBJECT_NAME":"HULIANWANG DIGUI-27","OBJECT_ID":"2025-086H","EPOCH":"2026-07-20T05:50:22.240608","CLASSIFICATION_TYPE":"U","MEAN_MOTION":13.24412394,"ECCENTRICITY":0.00021305,"INCLINATION":86.5056,"RA_OF_ASC_NODE":301.9389,"ARG_OF_PERICENTER":112.5729,"MEAN_ANOMALY":247.5631,"EPHEMERIS_TYPE":0,"NORAD_CAT_ID":63694,"ELEMENT_SET_NO":999,"REV_AT_EPOCH":5923,"BSTAR":0.000085903056,"MEAN_MOTION_DOT":5.2e-7,"MEAN_MOTION_DDOT":0}]}
