HULIANWANG DIGUI-12     
1 62972U 25030B   26201.24752315 -.00000082  00000+0  90943-4 0  9995
2 62972  50.0021 117.3778 0000876 287.4752  72.6024 13.29322582 70258
HULIANWANG DIGUI-13     
1 62973U 25030C   26201.23071785 -.00000085  00000+0  83976-4 0  9991
2 62973  50.0024 117.3060 0000710 289.0858  70.9938 13.29324644 70254
HULIANWANG DIGUI-14     
1 62974U 25030D   26201.20571019 -.00000087  00000+0  78757-4 0  9997
2 62974  50.0029 117.1989 0000711 294.0260  66.0538 13.29327622 70253
HULIANWANG DIGUI-15     
1 62975U 25030E   26201.22239025 -.00000090  00000+0  73863-4 0  9995
2 62975  50.0025 117.2657 0000793 292.2878  67.7910 13.29324580 70250
HULIANWANG DIGUI-16     
1 62976U 25030F   26201.19744175 -.00000081  00000+0  92125-4 0  9991
2 62976  50.0047 117.2263 0000681 292.4941  67.5859 13.29325772 70251
HULIANWANG DIGUI-17     
1 62977U 25030G   26201.26416840 -.00000086  00000+0  81733-4 0  9993
2 62977  50.0059 116.9648 0000783 283.6223  76.4562 13.29325909 70269
HULIANWANG DIGUI-18     
1 62978U 25030H   26201.25579006 -.00000086  00000+0  81025-4 0  9991
2 62978  50.0064 116.9359 0000809 282.4206  77.6576 13.29327890 70261
HULIANWANG DIGUI-19     
1 62979U 25030J   26201.21418276 -.00000090  00000+0  72682-4 0  9993
2 62979  50.0049 117.3211 0000707 281.7238  78.3555 13.29319156 70251
HULIANWANG DIGUI-20     
1 63687U 25086A   26201.26599937  .00000027  00000+0  29800-4 0  9993
2 63687  86.5066 301.9925 0002133 111.2812 248.8550 13.24411781 59252
HULIANWANG DIGUI-21     
1 63688U 25086B   26201.27358793  .00000022  00000+0  16365-4 0  9995
2 63688  86.5094 302.0567 0002082 114.3701 245.7650 13.24410405 59240
HULIANWANG DIGUI-22     
1 63689U 25086C   26201.28110770  .00000028  00000+0  30517-4 0  9999
2 63689  86.5059 301.9110 0002172 110.5465 249.5903 13.24410727 59249
HULIANWANG DIGUI-23     
1 63690U 25086D   26201.29619419  .00000054  00000+0  90968-4 0  9991
2 63690  86.5101 302.0976 0002145 111.1004 249.0359 13.24410510 59247
HULIANWANG DIGUI-24     
1 63691U 25086E   26201.30378265  .00000062  00000+0  11132-3 0  9999
2 63691  86.5108 302.1307 0002119 113.4891 246.6466 13.24411215 59249
HULIANWANG DIGUI-25     
1 63692U 25086F   26201.23579131  .00000073  00000+0  13555-3 0  9990
2 63692  86.5046 301.8945 0002064 111.3635 248.7720 13.24410595 59232
HULIANWANG DIGUI-26     
1 63693U 25086G   26201.28864573  .00000050  00000+0  82096-4 0  9995
2 63693  86.5095 302.0674 0002299 115.8752 244.2619 13.24409567 59244
HULIANWANG DIGUI-27     
1 63694U 25086H   26201.24331297  .00000052  00000+0  85903-4 0  9996
2 63694  86.5056 301.9389 0002130 112.5729 247.5631 13.24412394 59236
